[
    {
        "Altitude(m)": 554778.5664321623,
        "Argument of Periapsis(deg)": 0.006622991110713501,
        "Eccentricity": 0.0,
        "Inclination(deg)": 53.0,
        "Latitude(deg)": -3.650971490779216,
        "Longitude(deg)": -168.51386421978683,
        "Mean Anomaly(deg)": -4.453807132422514,
        "RAAN(deg)": 294.99014336852804,
        "Satellite Name": "Starlink Shell 1 1319",
        "Satellite Number": 1319,
        "Semi-Major Axis(m)": 6931778.249405717,
        "Time(s)": 190
    },
    {
        "Altitude(m)": 554694.562080931,
        "Argument of Periapsis(deg)": 0.0069715695902247375,
        "Eccentricity": 0.0,
        "Inclination(deg)": 53.0,
        "Latitude(deg)": -3.1476177891108894,
        "Longitude(deg)": -168.17722507302062,
        "Mean Anomaly(deg)": -3.8269759288656657,
        "RAAN(deg)": 294.9896245984506,
        "Satellite Name": "Starlink Shell 1 1319",
        "Satellite Number": 1319,
        "Semi-Major Axis(m)": 6931778.249405717,
        "Time(s)": 200
    },
    {
        "Altitude(m)": 554613.279274605,
        "Argument of Periapsis(deg)": 0.007320148069735974,
        "Eccentricity": 0.0,
        "Inclination(deg)": 53.0,
        "Latitude(deg)": -2.644111084062474,
        "Longitude(deg)": -167.84094001345784,
        "Mean Anomaly(deg)": -3.20014472530897,
        "RAAN(deg)": 294.9891058283731,
        "Satellite Name": "Starlink Shell 1 1319",
        "Satellite Number": 1319,
        "Semi-Major Axis(m)": 6931778.249405717,
        "Time(s)": 210
    },
    {
        "Altitude(m)": 554534.7337537404,
        "Argument of Periapsis(deg)": 0.007668726549247212,
        "Eccentricity": 0.0,
        "Inclination(deg)": 53.0,
        "Latitude(deg)": -2.1404744401742843,
        "Longitude(deg)": -167.50495113301778,
        "Mean Anomaly(deg)": -2.5733135217523255,
        "RAAN(deg)": 294.9885870582956,
        "Satellite Name": "Starlink Shell 1 1319",
        "Satellite Number": 1319,
        "Semi-Major Axis(m)": 6931778.249405717,
        "Time(s)": 220
    },
    {
        "Altitude(m)": 554458.93991946,
        "Argument of Periapsis(deg)": 0.00801730502875845,
        "Eccentricity": 0.0,
        "Inclination(deg)": 53.0,
        "Latitude(deg)": -1.6367308642548841,
        "Longitude(deg)": -167.16920065043192,
        "Mean Anomaly(deg)": -1.946482318195579,
        "RAAN(deg)": 294.98806828821813,
        "Satellite Name": "Starlink Shell 1 1319",
        "Satellite Number": 1319,
        "Semi-Major Axis(m)": 6931778.249405717,
        "Time(s)": 230
    },
    {
        "Altitude(m)": 554385.9108290217,
        "Argument of Periapsis(deg)": 0.008365883508269684,
        "Eccentricity": 0.0,
        "Inclination(deg)": 53.0,
        "Latitude(deg)": -1.132903317174442,
        "Longitude(deg)": -166.83363038166868,
        "Mean Anomaly(deg)": -1.3196511146388326,
        "RAAN(deg)": 294.9875495181407,
        "Satellite Name": "Starlink Shell 1 1319",
        "Satellite Number": 1319,
        "Semi-Major Axis(m)": 6931778.249405717,
        "Time(s)": 240
    },
    {
        "Altitude(m)": 554315.6581920715,
        "Argument of Periapsis(deg)": 0.008714461987780921,
        "Eccentricity": 0.0,
        "Inclination(deg)": 53.0,
        "Latitude(deg)": -0.6290147256099636,
        "Longitude(deg)": -166.49818272325797,
        "Mean Anomaly(deg)": -0.6928199110821369,
        "RAAN(deg)": 294.9870307480632,
        "Satellite Name": "Starlink Shell 1 1319",
        "Satellite Number": 1319,
        "Semi-Major Axis(m)": 6931778.249405717,
        "Time(s)": 250
    },
    {
        "Altitude(m)": 554248.1923675298,
        "Argument of Periapsis(deg)": 0.009063040467292158,
        "Eccentricity": 0.0,
        "Inclination(deg)": 53.0,
        "Latitude(deg)": -0.1250879937587589,
        "Longitude(deg)": -166.162800122762,
        "Mean Anomaly(deg)": -0.06598870752549219,
        "RAAN(deg)": 294.98651197798574,
        "Satellite Name": "Starlink Shell 1 1319",
        "Satellite Number": 1319,
        "Semi-Major Axis(m)": 6931778.249405717,
        "Time(s)": 260
    },
    {
        "Altitude(m)": 554183.5223611932,
        "Argument of Periapsis(deg)": 0.009411618946803396,
        "Eccentricity": 0.0,
        "Inclination(deg)": 53.0,
        "Latitude(deg)": 0.3788539849707283,
        "Longitude(deg)": -165.82742454925815,
        "Mean Anomaly(deg)": 0.5608424960312544,
        "RAAN(deg)": 294.9859932079082,
        "Satellite Name": "Starlink Shell 1 1319",
        "Satellite Number": 1319,
        "Semi-Major Axis(m)": 6931778.249405717,
        "Time(s)": 270
    },
    {
        "Altitude(m)": 554121.6558240018,
        "Argument of Periapsis(deg)": 0.009760197426314633,
        "Eccentricity": 0.0,
        "Inclination(deg)": 53.0,
        "Latitude(deg)": 0.8827883162821955,
        "Longitude(deg)": -165.49199847669917,
        "Mean Anomaly(deg)": 1.1876736995880517,
        "RAAN(deg)": 294.98547443783076,
        "Satellite Name": "Starlink Shell 1 1319",
        "Satellite Number": 1319,
        "Semi-Major Axis(m)": 6931778.249405717,
        "Time(s)": 280
    },
    {
        "Altitude(m)": 554062.5990509689,
        "Argument of Periapsis(deg)": 0.01010877590582587,
        "Eccentricity": 0.0,
        "Inclination(deg)": 53.0,
        "Latitude(deg)": 1.3866920933131355,
        "Longitude(deg)": -165.1564643543968,
        "Mean Anomaly(deg)": 1.8145049031446456,
        "RAAN(deg)": 294.98495566775335,
        "Satellite Name": "Starlink Shell 1 1319",
        "Satellite Number": 1319,
        "Semi-Major Axis(m)": 6931778.249405717,
        "Time(s)": 290
    },
    {
        "Altitude(m)": 554006.3569808265,
        "Argument of Periapsis(deg)": 0.010457354385337106,
        "Eccentricity": 0.0,
        "Inclination(deg)": 53.0,
        "Latitude(deg)": 1.89054238494572,
        "Longitude(deg)": -164.82076407749452,
        "Mean Anomaly(deg)": 2.4413361067013413,
        "RAAN(deg)": 294.98443689767583,
        "Satellite Name": "Starlink Shell 1 1319",
        "Satellite Number": 1319,
        "Semi-Major Axis(m)": 6931778.249405717,
        "Time(s)": 300
    },
    {
        "Altitude(m)": 553952.933196293,
        "Argument of Periapsis(deg)": 0.010805932864848343,
        "Eccentricity": 0.0,
        "Inclination(deg)": 53.0,
        "Latitude(deg)": 2.3943162240977367,
        "Longitude(deg)": -164.4848399702944,
        "Mean Anomaly(deg)": 3.0681673102581386,
        "RAAN(deg)": 294.9839181275984,
        "Satellite Name": "Starlink Shell 1 1319",
        "Satellite Number": 1319,
        "Semi-Major Axis(m)": 6931778.249405717,
        "Time(s)": 310
    },
    {
        "Altitude(m)": 553902.3299250869,
        "Argument of Periapsis(deg)": 0.01115451134435958,
        "Eccentricity": 0.0,
        "Inclination(deg)": 53.0,
        "Latitude(deg)": 2.8979905959778294,
        "Longitude(deg)": -164.14863425668477,
        "Mean Anomaly(deg)": 3.6949985138148342,
        "RAAN(deg)": 294.9833993575209,
        "Satellite Name": "Starlink Shell 1 1319",
        "Satellite Number": 1319,
        "Semi-Major Axis(m)": 6931778.249405717,
        "Time(s)": 320
    },
    {
        "Altitude(m)": 553854.5480415543,
        "Argument of Periapsis(deg)": 0.011503089823870818,
        "Eccentricity": 0.0,
        "Inclination(deg)": 53.0,
        "Latitude(deg)": 3.4015424262964857,
        "Longitude(deg)": -163.81208853053482,
        "Mean Anomaly(deg)": 4.321829717371529,
        "RAAN(deg)": 294.98288058744345,
        "Satellite Name": "Starlink Shell 1 1319",
        "Satellite Number": 1319,
        "Semi-Major Axis(m)": 6931778.249405717,
        "Time(s)": 330
    },
    {
        "Altitude(m)": 553809.587069028,
        "Argument of Periapsis(deg)": 0.011851668303382053,
        "Eccentricity": 0.0,
        "Inclination(deg)": 53.0,
        "Latitude(deg)": 3.904948569423606,
        "Longitude(deg)": -163.47514473891994,
        "Mean Anomaly(deg)": 4.948660920928277,
        "RAAN(deg)": 294.9823618173659,
        "Satellite Name": "Starlink Shell 1 1319",
        "Satellite Number": 1319,
        "Semi-Major Axis(m)": 6931778.249405717,
        "Time(s)": 340
    },
    {
        "Altitude(m)": 553767.4451828134,
        "Argument of Periapsis(deg)": 0.012200246782893292,
        "Eccentricity": 0.0,
        "Inclination(deg)": 53.0,
        "Latitude(deg)": 4.408185796475718,
        "Longitude(deg)": -163.13774465242733,
        "Mean Anomaly(deg)": 5.575492124485023,
        "RAAN(deg)": 294.98184304728846,
        "Satellite Name": "Starlink Shell 1 1319",
        "Satellite Number": 1319,
        "Semi-Major Axis(m)": 6931778.249405717,
        "Time(s)": 350
    },
    {
        "Altitude(m)": 553728.1192138839,
        "Argument of Periapsis(deg)": 0.012548825262404526,
        "Eccentricity": 0.0,
        "Inclination(deg)": 53.0,
        "Latitude(deg)": 4.9112307833252755,
        "Longitude(deg)": -162.79982933540634,
        "Mean Anomaly(deg)": 6.202323328041718,
        "RAAN(deg)": 294.981324277211,
        "Satellite Name": "Starlink Shell 1 1319",
        "Satellite Number": 1319,
        "Semi-Major Axis(m)": 6931778.249405717,
        "Time(s)": 360
    },
    {
        "Altitude(m)": 553691.6046532224,
        "Argument of Periapsis(deg)": 0.012897403741915765,
        "Eccentricity": 0.0,
        "Inclination(deg)": 53.0,
        "Latitude(deg)": 5.414060098522221,
        "Longitude(deg)": -162.46134012903073,
        "Mean Anomaly(deg)": 6.829154531598363,
        "RAAN(deg)": 294.98080550713354,
        "Satellite Name": "Starlink Shell 1 1319",
        "Satellite Number": 1319,
        "Semi-Major Axis(m)": 6931778.249405717,
        "Time(s)": 370
    }
]